{
  "type": "FeatureCollection",
  "features": [
    {
      "type": "Feature",
      "properties": {
        "norad_id": 33972,
        "name": "COSMOS 2251 DEB",
        "group": "cosmos-2251-debris",
        "lat": 42.377546261830794,
        "lon": -134.92828067589167,
        "alt_km": 687.5439061692723,
        "timestamp": "2025-12-02T07:10:09.509488+00:00",
        "meta_object_name": "COSMOS 2251 DEB",
        "meta_object_id": "1993-036FF",
        "meta_epoch": "2025-12-01T17:53:37.754304",
        "meta_mean_motion": 14.36097649,
        "meta_eccentricity": 0.0122839,
        "meta_inclination": 73.9949,
        "meta_ra_of_asc_node": 210.9078,
        "meta_arg_of_pericenter": 21.1258,
        "meta_mean_anomaly": 44.3036,
        "meta_ephemeris_type": 0,
        "meta_classification_type": "U",
        "meta_norad_cat_id": 33972,
        "meta_element_set_no": 999,
        "meta_rev_at_epoch": 86916,
        "meta_bstar": 0.0011096,
        "meta_mean_motion_dot": 3.495e-05,
        "meta_mean_motion_ddot": 0,
        "tle_line1": "1 33972U 93036FF  25335.74557586  .00003495  00000+0  11096-2 0  9999",
        "tle_line2": "2 33972  73.9949 210.9078 0122839  21.1258  44.3036 14.36097649869167"
      },
      "geometry": {
        "type": "Point",
        "coordinates": [
          -134.92828067589167,
          42.377546261830794
        ]
      }
    },
    {
      "type": "Feature",
      "properties": {
        "norad_id": 33973,
        "name": "COSMOS 2251 DEB",
        "group": "cosmos-2251-debris",
        "lat": 11.103745698720827,
        "lon": -60.83994154359362,
        "alt_km": 765.255868893204,
        "timestamp": "2025-12-02T07:10:09.509499+00:00",
        "meta_object_name": "COSMOS 2251 DEB",
        "meta_object_id": "1993-036FG",
        "meta_epoch": "2025-12-01T19:17:53.985984",
        "meta_mean_motion": 14.45370413,
        "meta_eccentricity": 0.004708,
        "meta_inclination": 74.0066,
        "meta_ra_of_asc_node": 123.3101,
        "meta_arg_of_pericenter": 303.796,
        "meta_mean_anomaly": 172.2689,
        "meta_ephemeris_type": 0,
        "meta_classification_type": "U",
        "meta_norad_cat_id": 33973,
        "meta_element_set_no": 999,
        "meta_rev_at_epoch": 88442,
        "meta_bstar": 0.00016258,
        "meta_mean_motion_dot": 5.51e-06,
        "meta_mean_motion_ddot": 0,
        "tle_line1": "1 33973U 93036FG  25335.80409706  .00000551  00000+0  16258-3 0  9993",
        "tle_line2": "2 33973  74.0066 123.3101 0047080 303.7960 172.2689 14.45370413884421"
      },
      "geometry": {
        "type": "Point",
        "coordinates": [
          -60.83994154359362,
          11.103745698720827
        ]
      }
    },
    {
      "type": "Feature",
      "properties": {
        "norad_id": 33975,
        "name": "COSMOS 2251 DEB",
        "group": "cosmos-2251-debris",
        "lat": -3.242658349431042,
        "lon": 101.86237292883166,
        "alt_km": 961.5060155604178,
        "timestamp": "2025-12-02T07:10:09.509509+00:00",
        "meta_object_name": "COSMOS 2251 DEB",
        "meta_object_id": "1993-036FJ",
        "meta_epoch": "2025-12-01T19:11:06.565056",
        "meta_mean_motion": 14.00482147,
        "meta_eccentricity": 0.0191509,
        "meta_inclination": 73.801,
        "meta_ra_of_asc_node": 103.6834,
        "meta_arg_of_pericenter": 238.252,
        "meta_mean_anomaly": 119.9829,
        "meta_ephemeris_type": 0,
        "meta_classification_type": "U",
        "meta_norad_cat_id": 33975,
        "meta_element_set_no": 999,
        "meta_rev_at_epoch": 85676,
        "meta_bstar": 0.00074765,
        "meta_mean_motion_dot": 1.274e-05,
        "meta_mean_motion_ddot": 0,
        "tle_line1": "1 33975U 93036FJ  25335.79938154  .00001274  00000+0  74765-3 0  9997",
        "tle_line2": "2 33975  73.8010 103.6834 0191509 238.2520 119.9829 14.00482147856762"
      },
      "geometry": {
        "type": "Point",
        "coordinates": [
          101.86237292883166,
          -3.242658349431042
        ]
      }
    },
    {
      "type": "Feature",
      "properties": {
        "norad_id": 33980,
        "name": "COSMOS 2251 DEB",
        "group": "cosmos-2251-debris",
        "lat": 9.936381913384931,
        "lon": -103.58411086892245,
        "alt_km": 687.672504589531,
        "timestamp": "2025-12-02T07:10:09.509519+00:00",
        "meta_object_name": "COSMOS 2251 DEB",
        "meta_object_id": "1993-036FP",
        "meta_epoch": "2025-12-01T17:47:08.594016",
        "meta_mean_motion": 14.58520656,
        "meta_eccentricity": 0.0029317,
        "meta_inclination": 74.0212,
        "meta_ra_of_asc_node": 80.3552,
        "meta_arg_of_pericenter": 227.155,
        "meta_mean_anomaly": 255.8317,
        "meta_ephemeris_type": 0,
        "meta_classification_type": "U",
        "meta_norad_cat_id": 33980,
        "meta_element_set_no": 999,
        "meta_rev_at_epoch": 88634,
        "meta_bstar": 0.00090904,
        "meta_mean_motion_dot": 4.222e-05,
        "meta_mean_motion_ddot": 0,
        "tle_line1": "1 33980U 93036FP  25335.74107169  .00004222  00000+0  90904-3 0  9991",
        "tle_line2": "2 33980  74.0212  80.3552 0029317 227.1550 255.8317 14.58520656886340"
      },
      "geometry": {
        "type": "Point",
        "coordinates": [
          -103.58411086892245,
          9.936381913384931
        ]
      }
    },
    {
      "type": "Feature",
      "properties": {
        "norad_id": 33982,
        "name": "COSMOS 2251 DEB",
        "group": "cosmos-2251-debris",
        "lat": -34.35784560539965,
        "lon": 8.567903578926652,
        "alt_km": 710.3482488054324,
        "timestamp": "2025-12-02T07:10:09.509529+00:00",
        "meta_object_name": "COSMOS 2251 DEB",
        "meta_object_id": "1993-036FR",
        "meta_epoch": "2025-12-01T12:07:51.322368",
        "meta_mean_motion": 14.60148231,
        "meta_eccentricity": 0.00747926,
        "meta_inclination": 74.0706,
        "meta_ra_of_asc_node": 21.3374,
        "meta_arg_of_pericenter": 69.1731,
        "meta_mean_anomaly": 47.7081,
        "meta_ephemeris_type": 0,
        "meta_classification_type": "U",
        "meta_norad_cat_id": 33982,
        "meta_element_set_no": 999,
        "meta_rev_at_epoch": 88995,
        "meta_bstar": 0.00037178982,
        "meta_mean_motion_dot": 1.831e-05,
        "meta_mean_motion_ddot": 0,
        "tle_line1": "1 33982U 93036FR  25335.50545512  .00001831  00000+0  37179-3 0  9993",
        "tle_line2": "2 33982  74.0706  21.3374 0074792  69.1731  47.7081 14.60148231889953"
      },
      "geometry": {
        "type": "Point",
        "coordinates": [
          8.567903578926652,
          -34.35784560539965
        ]
      }
    },
    {
      "type": "Feature",
      "properties": {
        "norad_id": 33983,
        "name": "COSMOS 2251 DEB",
        "group": "cosmos-2251-debris",
        "lat": -68.42342455798754,
        "lon": 32.97775014987672,
        "alt_km": 715.928447899003,
        "timestamp": "2025-12-02T07:10:09.509540+00:00",
        "meta_object_name": "COSMOS 2251 DEB",
        "meta_object_id": "1993-036FS",
        "meta_epoch": "2025-12-01T13:42:58.288608",
        "meta_mean_motion": 14.50596236,
        "meta_eccentricity": 0.00214213,
        "meta_inclination": 74.0489,
        "meta_ra_of_asc_node": 168.0203,
        "meta_arg_of_pericenter": 272.1308,
        "meta_mean_anomaly": 147.1214,
        "meta_ephemeris_type": 0,
        "meta_classification_type": "U",
        "meta_norad_cat_id": 33983,
        "meta_element_set_no": 999,
        "meta_rev_at_epoch": 88467,
        "meta_bstar": 0.00049150215,
        "meta_mean_motion_dot": 1.906e-05,
        "meta_mean_motion_ddot": 0,
        "tle_line1": "1 33983U 93036FS  25335.57150797  .00001906  00000+0  49150-3 0  9993",
        "tle_line2": "2 33983  74.0489 168.0203 0021421 272.1308 147.1214 14.50596236884677"
      },
      "geometry": {
        "type": "Point",
        "coordinates": [
          32.97775014987672,
          -68.42342455798754
        ]
      }
    },
    {
      "type": "Feature",
      "properties": {
        "norad_id": 33984,
        "name": "COSMOS 2251 DEB",
        "group": "cosmos-2251-debris",
        "lat": 44.64865195037169,
        "lon": 170.8080933651744,
        "alt_km": 664.6213452403772,
        "timestamp": "2025-12-02T07:10:09.509550+00:00",
        "meta_object_name": "COSMOS 2251 DEB",
        "meta_object_id": "1993-036FT",
        "meta_epoch": "2025-12-01T19:37:15.257280",
        "meta_mean_motion": 14.66206495,
        "meta_eccentricity": 0.0023794,
        "meta_inclination": 74.0103,
        "meta_ra_of_asc_node": 8.1905,
        "meta_arg_of_pericenter": 208.8612,
        "meta_mean_anomaly": 265.544,
        "meta_ephemeris_type": 0,
        "meta_classification_type": "U",
        "meta_norad_cat_id": 33984,
        "meta_element_set_no": 999,
        "meta_rev_at_epoch": 88906,
        "meta_bstar": 0.00082862,
        "meta_mean_motion_dot": 4.552e-05,
        "meta_mean_motion_ddot": 0,
        "tle_line1": "1 33984U 93036FT  25335.81753770  .00004552  00000+0  82862-3 0  9998",
        "tle_line2": "2 33984  74.0103   8.1905 0023794 208.8612 265.5440 14.66206495889069"
      },
      "geometry": {
        "type": "Point",
        "coordinates": [
          170.8080933651744,
          44.64865195037169
        ]
      }
    }
  ]
}